{"type": "FeatureCollection", "features": [ {"type": "Feature", "properties": {"norad_id": 30594, "name": "FENGYUN 1C DEB", "group": "fengyun-1c-debris", "lat": 5.716812730488828, "lon": 15.004687103999505, "alt_km": 972.4035702845795, "timestamp": "2025-12-04T03:47:54.820680+00:00", "meta": {"OBJECT_NAME": "FENGYUN 1C DEB", "OBJECT_ID": "1999-025ALZ", "EPOCH": "2025-12-03T10:01:53.649120", "MEAN_MOTION": 14.17326369, "ECCENTRICITY": 0.0193817, "INCLINATION": 99.152, "RA_OF_ASC_NODE": 193.3176, "ARG_OF_PERICENTER": 342.8127, "MEAN_ANOMALY": 16.6544, "EPHEMERIS_TYPE": 0, "CLASSIFICATION_TYPE": "U", "NORAD_CAT_ID": 30594, "ELEMENT_SET_NO": 999, "REV_AT_EPOCH": 97447, "BSTAR": 0.00026073, "MEAN_MOTION_DOT": 5.84e-06, "MEAN_MOTION_DDOT": 0}, "tle": {"line1": "1 30594U 99025ALZ 25337.41798205  .00000584  00000+0  26073-3 0  9999", "line2": "2 30594  99.1520 193.3176 0193817 342.8127  16.6544 14.17326369974474"}}, "geometry": {"type": "Point", "coordinates": [15.004687103999505, 5.716812730488828]}}, {"type": "Feature", "properties": {"norad_id": 30596, "name": "FENGYUN 1C DEB", "group": "fengyun-1c-debris", "lat": -20.92978350152624, "lon": -20.658871109258104, "alt_km": 620.0371632826782, "timestamp": "2025-12-04T03:47:54.820690+00:00", "meta": {"OBJECT_NAME": "FENGYUN 1C DEB", "OBJECT_ID": "1999-025AMB", "EPOCH": "2025-12-03T11:52:42.428928", "MEAN_MOTION": 14.34309627, "ECCENTRICITY": 0.0247825, "INCLINATION": 98.4123, "RA_OF_ASC_NODE": 335.4503, "ARG_OF_PERICENTER": 316.758, "MEAN_ANOMALY": 197.8625, "EPHEMERIS_TYPE": 0, "CLASSIFICATION_TYPE": "U", "NORAD_CAT_ID": 30596, "ELEMENT_SET_NO": 999, "REV_AT_EPOCH": 98428, "BSTAR": 0.0007034, "MEAN_MOTION_DOT": 2.739e-05, "MEAN_MOTION_DDOT": 0}, "tle": {"line1": "1 30596U 99025AMB 25337.49493552  .00002739  00000+0  70340-3 0  9996", "line2": "2 30596  98.4123 335.4503 0247825 316.7580 197.8625 14.34309627984281"}}, "geometry": {"type": "Point", "coordinates": [-20.658871109258104, -20.92978350152624]}}, {"type": "Feature", "properties": {"norad_id": 30597, "name": "FENGYUN 1C DEB", "group": "fengyun-1c-debris", "lat": -60.60669342576163, "lon": 77.25115977489502, "alt_km": 581.3468643992019, "timestamp": "2025-12-04T03:47:54.820700+00:00", "meta": {"OBJECT_NAME": "FENGYUN 1C DEB", "OBJECT_ID": "1999-025AMC", "EPOCH": "2025-12-02T07:13:42.250080", "MEAN_MOTION": 14.90789393, "ECCENTRICITY": 0.00441286, "INCLINATION": 98.94, "RA_OF_ASC_NODE": 271.3774, "ARG_OF_PERICENTER": 199.583, "MEAN_ANOMALY": 160.3691, "EPHEMERIS_TYPE": 0, "CLASSIFICATION_TYPE": "U", "NORAD_CAT_ID": 30597, "ELEMENT_SET_NO": 999, "REV_AT_EPOCH": 98381, "BSTAR": 0.0059273549, "MEAN_MOTION_DOT": 0.00059785, "MEAN_MOTION_DDOT": 0}, "tle": {"line1": "1 30597U 99025AMC 25336.30118345  .00059785  00000+0  59274-2 0  9995", "line2": "2 30597  98.9400 271.3774 0044128 199.5830 160.3691 14.90789393983819"}}, "geometry": {"type": "Point", "coordinates": [77.25115977489502, -60.60669342576163]}}, {"type": "Feature", "properties": {"norad_id": 30599, "name": "FENGYUN 1C DEB", "group": "fengyun-1c-debris", "lat": 34.12373668784649, "lon": -15.878547709562508, "alt_km": 625.3828655386824, "timestamp": "2025-12-04T03:47:54.820710+00:00", "meta": {"OBJECT_NAME": "FENGYUN 1C DEB", "OBJECT_ID": "1999-025AME", "EPOCH": "2025-12-03T07:20:51.743616", "MEAN_MOTION": 14.19615051, "ECCENTRICITY": 0.0303096, "INCLINATION": 98.6033, "RA_OF_ASC_NODE": 349.1805, "ARG_OF_PERICENTER": 12.0705, "MEAN_ANOMALY": 348.7529, "EPHEMERIS_TYPE": 0, "CLASSIFICATION_TYPE": "U", "NORAD_CAT_ID": 30599, "ELEMENT_SET_NO": 999, "REV_AT_EPOCH": 97033, "BSTAR": 0.0011332, "MEAN_MOTION_DOT": 3.745e-05, "MEAN_MOTION_DDOT": 0}, "tle": {"line1": "1 30599U 99025AME 25337.30615444  .00003745  00000+0  11332-2 0  9998", "line2": "2 30599  98.6033 349.1805 0303096  12.0705 348.7529 14.19615051970336"}}, "geometry": {"type": "Point", "coordinates": [-15.878547709562508, 34.12373668784649]}}, {"type": "Feature", "properties": {"norad_id": 30600, "name": "FENGYUN 1C DEB", "group": "fengyun-1c-debris", "lat": 26.343511634877732, "lon": 107.6884465590701, "alt_km": 977.3984513266305, "timestamp": "2025-12-04T03:47:54.820721+00:00", "meta": {"OBJECT_NAME": "FENGYUN 1C DEB", "OBJECT_ID": "1999-025AMF", "EPOCH": "2025-11-30T15:24:54.916992", "MEAN_MOTION": 14.07030871, "ECCENTRICITY": 0.0330604, "INCLINATION": 98.3855, "RA_OF_ASC_NODE": 280.231, "ARG_OF_PERICENTER": 282.0902, "MEAN_ANOMALY": 74.3412, "EPHEMERIS_TYPE": 0, "CLASSIFICATION_TYPE": "U", "NORAD_CAT_ID": 30600, "ELEMENT_SET_NO": 999, "REV_AT_EPOCH": 94262, "BSTAR": 0.0058342, "MEAN_MOTION_DOT": 0.00016035, "MEAN_MOTION_DDOT": 0}, "tle": {"line1": "1 30600U 99025AMF 25334.64230228  .00016035  00000+0  58342-2 0  9996", "line2": "2 30600  98.3855 280.2310 0330604 282.0902  74.3412 14.07030871942629"}}, "geometry": {"type": "Point", "coordinates": [107.6884465590701, 26.343511634877732]}}, {"type": "Feature", "properties": {"norad_id": 30602, "name": "FENGYUN 1C DEB", "group": "fengyun-1c-debris", "lat": 49.599842810045665, "lon": 81.59373204876644, "alt_km": 591.5311255932647, "timestamp": "2025-12-04T03:47:54.820731+00:00", "meta": {"OBJECT_NAME": "FENGYUN 1C DEB", "OBJECT_ID": "1999-025AMH", "EPOCH": "2025-12-03T11:20:16.730304", "MEAN_MOTION": 14.88991359, "ECCENTRICITY": 0.0007037, "INCLINATION": 99.0334, "RA_OF_ASC_NODE": 250.0384, "ARG_OF_PERICENTER": 151.6547, "MEAN_ANOMALY": 263.4199, "EPHEMERIS_TYPE": 0, "CLASSIFICATION_TYPE": "U", "NORAD_CAT_ID": 30602, "ELEMENT_SET_NO": 999, "REV_AT_EPOCH": 97667, "BSTAR": 0.010305, "MEAN_MOTION_DOT": 0.00098259, "MEAN_MOTION_DDOT": 0}, "tle": {"line1": "1 30602U 99025AMH 25337.47241586  .00098259  00000+0  10305-1 0  9995", "line2": "2 30602  99.0334 250.0384 0007037 151.6547 263.4199 14.88991359976675"}}, "geometry": {"type": "Point", "coordinates": [81.59373204876644, 49.599842810045665]}}, {"type": "Feature", "properties": {"norad_id": 30603, "name": "FENGYUN 1C DEB", "group": "fengyun-1c-debris", "lat": 73.50574290909, "lon": -148.05803676310774, "alt_km": 1016.7908858209748, "timestamp": "2025-12-04T03:47:54.820741+00:00", "meta": {"OBJECT_NAME": "FENGYUN 1C DEB", "OBJECT_ID": "1999-025AMJ", "EPOCH": "2025-12-02T01:06:38.105568", "MEAN_MOTION": 13.84066911, "ECCENTRICITY": 0.01829228, "INCLINATION": 98.4104, "RA_OF_ASC_NODE": 0.074, "ARG_OF_PERICENTER": 234.5598, "MEAN_ANOMALY": 153.8128, "EPHEMERIS_TYPE": 0, "CLASSIFICATION_TYPE": "U", "NORAD_CAT_ID": 30603, "ELEMENT_SET_NO": 999, "REV_AT_EPOCH": 94728, "BSTAR": 0.0014668065, "MEAN_MOTION_DOT": 1.819e-05, "MEAN_MOTION_DDOT": 0}, "tle": {"line1": "1 30603U 99025AMJ 25336.04627437  .00001819  00000+0  14668-2 0  9994", "line2": "2 30603  98.4104   0.0740 0182922 234.5598 153.8128 13.84066911947288"}}, "geometry": {"type": "Point", "coordinates": [-148.05803676310774, 73.50574290909]}}, {"type": "Feature", "properties": {"norad_id": 30604, "name": "FENGYUN 1C DEB", "group": "fengyun-1c-debris", "lat": -8.577438155047307, "lon": 14.650531557754498, "alt_km": 700.8858108445929, "timestamp": "2025-12-04T03:47:54.820751+00:00", "meta": {"OBJECT_NAME": "FENGYUN 1C DEB", "OBJECT_ID": "1999-025AMK", "EPOCH": "2025-12-02T20:36:37.130976", "MEAN_MOTION": 14.23583387, "ECCENTRICITY": 0.0210266, "INCLINATION": 98.4039, "RA_OF_ASC_NODE": 12.1303, "ARG_OF_PERICENTER": 35.7359, "MEAN_ANOMALY": 141.1928, "EPHEMERIS_TYPE": 0, "CLASSIFICATION_TYPE": "U", "NORAD_CAT_ID": 30604, "ELEMENT_SET_NO": 999, "REV_AT_EPOCH": 97698, "BSTAR": 0.00037996189, "MEAN_MOTION_DOT": 1.043e-05, "MEAN_MOTION_DDOT": 0}, "tle": {"line1": "1 30604U 99025AMK 25336.85876309  .00001043  00000+0  37996-3 0  9997", "line2": "2 30604  98.4039  12.1303 0210266  35.7359 141.1928 14.23583387976986"}}, "geometry": {"type": "Point", "coordinates": [14.650531557754498, -8.577438155047307]}}, {"type": "Feature", "properties": {"norad_id": 30606, "name": "FENGYUN 1C DEB", "group": "fengyun-1c-debris", "lat": 13.797483488908536, "lon": -13.459368762955181, "alt_km": 832.1944731871918, "timestamp": "2025-12-04T03:47:54.820761+00:00", "meta": {"OBJECT_NAME": "FENGYUN 1C DEB", "OBJECT_ID": "1999-025AMM", "EPOCH": "2025-12-03T11:57:54.249120", "MEAN_MOTION": 14.5753218, "ECCENTRICITY": 0.0213897, "INCLINATION": 98.0961, "RA_OF_ASC_NODE": 347.9017, "ARG_OF_PERICENTER": 165.8946, "MEAN_ANOMALY": 349.7821, "EPHEMERIS_TYPE": 0, "CLASSIFICATION_TYPE": "U", "NORAD_CAT_ID": 30606, "ELEMENT_SET_NO": 999, "REV_AT_EPOCH": 99107, "BSTAR": 0.00087271, "MEAN_MOTION_DOT": 5.388e-05, "MEAN_MOTION_DDOT": 0}, "tle": {"line1": "1 30606U 99025AMM 25337.49854455  .00005388  00000+0  87271-3 0  9995", "line2": "2 30606  98.0961 347.9017 0213897 165.8946 349.7821 14.57532180991076"}}, "geometry": {"type": "Point", "coordinates": [-13.459368762955181, 13.797483488908536]}}, {"type": "Feature", "properties": {"norad_id": 30608, "name": "FENGYUN 1C DEB", "group": "fengyun-1c-debris", "lat": -75.45197674371907, "lon": 77.05874944069446, "alt_km": 802.0032639517212, "timestamp": "2025-12-04T03:47:54.820771+00:00", "meta": {"OBJECT_NAME": "FENGYUN 1C DEB", "OBJECT_ID": "1999-025AMP", "EPOCH": "2025-12-03T03:05:15.754848", "MEAN_MOTION": 14.28386462, "ECCENTRICITY": 0.00156158, "INCLINATION": 98.7123, "RA_OF_ASC_NODE": 39.812, "ARG_OF_PERICENTER": 206.9919, "MEAN_ANOMALY": 183.0463, "EPHEMERIS_TYPE": 0, "CLASSIFICATION_TYPE": "U", "NORAD_CAT_ID": 30608, "ELEMENT_SET_NO": 999, "REV_AT_EPOCH": 97302, "BSTAR": 0.0015785976, "MEAN_MOTION_DOT": 3.908e-05, "MEAN_MOTION_DDOT": 0}, "tle": {"line1": "1 30608U 99025AMP 25337.12865457  .00003908  00000+0  15786-2 0  9998", "line2": "2 30608  98.7123  39.8120 0015615 206.9919 183.0463 14.28386462973026"}}, "geometry": {"type": "Point", "coordinates": [77.05874944069446, -75.45197674371907]}}]}